[{"OBJECT_NAME":"STARLINK-30306","OBJECT_ID":"2023-122B","EPOCH":"2026-03-09T02:09:34.242624","MEAN_MOTION":15.26746046,"ECCENTRICITY":0.00014558,"INCLINATION":43.0009,"RA_OF_ASC_NODE":96.0257,"ARG_OF_PERICENTER":254.7696,"MEAN_ANOMALY":105.2994,"EPHEMERIS_TYPE":0,"CLASSIFICATION_TYPE":"U","NORAD_CAT_ID":57633,"ELEMENT_SET_NO":999,"REV_AT_EPOCH":14211,"BSTAR":7.8192912e-5,"MEAN_MOTION_DOT":1.839e-5,"MEAN_MOTION_DDOT":0},{"OBJECT_NAME":"FLOCK 4G-31","OBJECT_ID":"2025-009AV","EPOCH":"2026-03-09T17:55:44.365728","MEAN_MOTION":15.26963037,"ECCENTRICITY":5.975e-5,"INCLINATION":97.4007,"RA_OF_ASC_NODE":151.027,"ARG_OF_PERICENTER":42.5998,"MEAN_ANOMALY":317.5288,"EPHEMERIS_TYPE":0,"CLASSIFICATION_TYPE":"U","NORAD_CAT_ID":62652,"ELEMENT_SET_NO":999,"REV_AT_EPOCH":6372,"BSTAR":0.00048078603,"MEAN_MOTION_DOT":0.00012662,"MEAN_MOTION_DDOT":0}]
